name,address,zip_code,phone_number
Ridge Chemists,"122 Bay Ridge Ave. Brooklyn, NY ",11220,7183335979
Sunrise Family Pharmacy,"63-24 4th Ave. Brooklyn, NY ",11220,7185679100
Bay Ridge Rx Specialty Pharmacy,"69-10 3rd Ave. Brooklyn, NY ",11209,7186802229
Neugard Pharmacy & Surgical,"73-11 3rd Ave. Brooklyn, NY ",11209,7187489300
NY Med Pharmacy,"69-24 4th Ave. Brooklyn, NY ",11220,3475991165
True Health Pharmacy Inc.,"75-24 5th Ave. Brooklyn, NY ",11209,7187484300
Teba Pharmacy,"76-18 5th Ave. Brooklyn, NY ",11209,3475174833
Farmacon Pharmacy,"80-07 5th Ave. Brooklyn, NY ",11209,7182381090
Best Care Pharmacy & Surgical,"85-10 3rd Ave. Brooklyn, NY ",11209,7186809855
A&V Pharmacy,"85-01 4th Ave. Brooklyn, NY ",11209,7182381402
Bay Chemists,"87-02 5th Ave. Brooklyn, NY ",11209,3479097107
Bridge Pharmacy,"89-12 3rd Ave. Brooklyn, NY ",11209,7188361400
New Victory Pharmacy,"92-16 4th Ave. Brooklyn, NY ",11209,7187455100
A to Z Pharmacy,"94-07 5th Ave. Brooklyn, NY ",11209,3475174040
Narrows Pharmacy,"99-20 4th Ave. #100 Brooklyn, NY",11209,7182381445
Sunset Corner Pharmacy,"60-02 4th Ave. Brooklyn, NY ",11220,3478897200
Lowens Pharmacy,"69-02 3rd Ave. Brooklyn, NY ",11209,7182382444
Pyramids Rx Pharmacy,"68-06 4th Ave. Brooklyn, NY ",11220,7187481400
Nile Ridge Pharmacy,"69-22 4th Ave. Brooklyn, NY ",11209,7183335746
Freedom Rx Pharmacy,"69-14 5th Ave. Brooklyn, NY ",11209,3475174431
Bay Ridge Rx,"71-19 5th Ave. Brooklyn, NY ",11209,7187457119
St. Marie Pharmacy,"72-11 5th Ave. Brooklyn, NY ",11209,3475606866
Alafiya Pharmacy,"78-20 5th Ave. Brooklyn, NY ",11209,7183335703
Americare Pharmacy Corp.,"81-14 5th Ave. Brooklyn, NY ",11209,9293735577
SmartHealth Pharmacy,"547 86th St. Brooklyn, NY ",11209,7182382725
EZ Rx Pharmacy,"88-02 4th Ave. Brooklyn, NY ",11209,3475606560
Bay Ridge Plaza Pharmacy,"90-06 5th Ave. Brooklyn, NY ",11209,7183335304
St. Mary Pharmacy,"97-20 4th Ave. Brooklyn, NY ",11209,7189212525
Ridge Ez Pharmacy,"69-23 4th Ave. Brooklyn, NY ",11209,7183335356
Huikang Pharmacy,"64-10 8th Ave. Brooklyn, NY ",11220,7183335654
Dyker Heights Pharmacy,"80-16 13th Ave. Brooklyn, NY ",11228,7188334810
Care Plus Pharmacy,"70-10 18th Ave. Brooklyn, NY ",11204,7182564886
Quick Stop Pharmacy,"72-10 20th Ave. Brooklyn, NY ",11204,7182563400
Pure Health Pharmacy,"80-14 18th Ave. Brooklyn, NY ",11214,7182362747
Be Well Pharmacy,"80-12 20th Ave. Brooklyn, NY ",11214,7182322320
Family Health Pharmacy,"85-10 18th Ave. Brooklyn, NY ",11214,7188375777
Family Pharmacy,"17-57 Bath Ave. Brooklyn, NY ",11214,7183318877
Bath Ave. Pharmacy,"21-09 Bath Ave. Brooklyn, NY ",11214,3476735314
Bay Parkway Pharmacy,"85-06A Bay Pkwy. Brooklyn, NY ",11214,9179339188
QualiMeds Pharmacy,"22-72 86th St. Brooklyn, NY ",11214,7188725737
Centre Care Pharmacy,"23-21 86th St. Brooklyn, NY ",11214,2122260988
Main Pharmacy,"23-50 86th St. Brooklyn, NY ",11214,7183722144
Mannings 8th Ave. Pharmacy,"64-02 8th Ave. #G103 Brooklyn, NY ",11220,7182383850
Pollina Pharmacy,"76-05 13th Ave. Brooklyn, NY ",11228,7183314300
Rx Warehouse Pharmacy,"77-24 New Utrecht Ave. Brooklyn, NY ",11214,7182341212
Forever Health Pharmacy II,"72-24 18th Ave. Brooklyn, NY ",11204,3476738678
Bobo Pharmacy,"69-03 18th Ave. Brooklyn, NY ",11204,7187596308
Fusion Pharmacy,"68-01 18th Ave. Brooklyn, NY ",11204,7189752130
Mercy Pharmacy,"64-13 18th Ave. Brooklyn, NY ",11204,7182561020
Care Rx Pharmacy,"80-11 18th Ave. Brooklyn, NY ",11214,7183312668
Regal Remedies Pharmacy,"18-53 Cropsey Ave. Brooklyn, NY ",11214,7182654646
Kay's Pharmacy,"22-01 Bath Ave. Brooklyn, NY ",11214,7183720797
Bay-Care Pharmacy,"85-15 Bay Pkwy. Brooklyn, NY ",11214,7182666160
Bay Pharmacy Inc. ,"22-40 86th St. Brooklyn, NY ",11214,7183732722
RL Health Pharmacy,"23-04 86th St. Brooklyn, NY ",11214,7183330410
Nextgen Pharmacy Corp.,"24-83 86th St. Brooklyn, NY ",11214,7186769191
Vital Chemist,"66-01 20th Ave. Brooklyn, NY ",11204,7187585557
Alleon Pharmacy,"68-23 Fort Hamilton Pkwy. Brooklyn, NY ",11219,7187450733
JRSTAT Pharmacy,"71-07 13th Ave. Brooklyn, NY ",11228,7186332988
Dolinsky's Family Drug Store,"16-78 Bath Ave. Brooklyn, NY ",11214,7182568423
J&L Pharmacy,"85-13 Bay 16th St. Brooklyn, NY ",11214,7182325541
Ummat Pharmacy,"87-19 18th Ave. Brooklyn, NY ",11214,3475874029
Rx One Pharmacy,"19-18 86th St. Brooklyn, NY ",11214,6464904920
Nile Express Pharmacy,"19-50 Bath Ave. #4723 Brooklyn, NY ",11214,7189287720
Health Treasures Pharmacy Inc. ,"85-12 20th Ave. #3253 Brooklyn, NY ",11214,7183330395
Nates Pharmacy,"20-70 Bath Ave. Brooklyn, NY ",11214,7182363274
Link Pharmacy,"21-08 Bath Ave. Brooklyn, NY ",11214,7189211858
21st Ave. Pharmacy & Medical Supply Inc.,"85-11 21st Ave. Brooklyn, NY ",11214,7184494949
Kira's Pharmacy,"88 Kings Hwy. Brooklyn, NY",11214,7186764343
Award Pharmacy,"22-49 86th St. Brooklyn, NY ",11214,7183311310
Planet Rx Pharmacy,"28-13 Cropsey Ave. Brooklyn, NY ",11214,7189757525
Care Max Pharmacy Inc.,"67-21 Fort Hamilton Pkwy. Brooklyn, NY ",11219,7188336700
Scarpa Pharmacy & Surgical ,"62-20 11th Ave. Brooklyn, NY ",11219,7187455499
Dyker Care Pharmacy,"74-26 15th Ave. Brooklyn, NY ",11228,7182165555
Silver Rod Pharmacy,"64-04 18th Ave. Brooklyn, NY ",11204,7182365705
Blue Point Pharmacy LLC,"66-04 18th Ave. Brooklyn, NY ",11204,3474927130
All Family Pharmacy Inc.,"70-17 18th Ave. Brooklyn, NY ",11204,7182328668
Ohana Pharmacy Inc.,"16-90 86th St. Brooklyn, NY ",11214,7182320900
Top Kare Pharmacy Inc.,"18-63 86th St. Brooklyn, NY ",11214,3474927831
ABC Drugs,"19-42 86th St. Brooklyn, NY ",11214,7182342500
86 Pharmacy Inc.,"20-42 86th St. Brooklyn, NY ",11214,7182661268
Borbas Pharmacy & Medical Supply,"20-46 Bath Ave. #2FL Brooklyn, NY",11214,8882088415
LCK Pharmacy Inc.,"20-06 Bay Ridge Pkwy. Brooklyn, NY ",11204,9295527088
Hong Kong Pharmacy,"67-14 Fort Hamilton Pkwy. Brooklyn, NY ",11219,9292922326
Medcare Pharmacy,"260 Kings Hwy. Brooklyn, NY ",11223,7185133322
Friends Pharmacy,"342 Kings Hwy. Brooklyn, NY ",11223,7187534900
Mayflower Pharmacy,"397 Kings Hwy. Brooklyn, NY ",11223,7186450999
Main Pharmacy,"23-50 86th St. Brooklyn, NY ",11214,7183722144
Marlboro Pharmacy,"23-13 Stillwell Ave. Brooklyn, NY ",11223,7183732600
L&A Pharmacy,"395 Avenue X Brooklyn, NY",11223,7183393131
Coney Island Pharmacy,"27-20 Mermaid Ave. Brooklyn, NY ",11224,7183332525
Sunrise Pharmacy,"67-25 Bay Pkwy. Brooklyn, NY ",11204,7188370600
Value Med Pharmacy,"87 Avenue O Brooklyn, NY",11204,7182327766
Future Pharmacy Inc.,"24-80 65th St. Brooklyn, NY ",11204,7186736563
Dear Drugs Inc.,"490 Avenue P Brooklyn, NY ",11223,7189988000
Wellness Pharmacy,"217 Kings Hwy. Brooklyn, NY ",11223,7182328277
Kingsway Pharmacy,"250 Kings Hwy. Brooklyn, NY ",11223,7189466899
Doc's Pharmacy,"559 Kings Hwy. Brooklyn, NY ",11223,7186271145
86th Street Community Pharmacy,"27-89 86th St. Brooklyn, NY ",11223,7182662137
Smart Choice Pharmacy,"259 Avenue X Brooklyn, NY ",11223,7183393400
Brooklyn Family Pharmacy,"355 Avenue X Brooklyn, NY ",11223,7189757757
Mermaid Pharmacy Inc.,"21-09 Mermaid Ave. Brooklyn, NY ",11224,7189461084
Friscia Pharmacy,"15-05 Mermaid Ave. Brooklyn, NY ",11224,7183739600
Medcal Pharmacy,"60-10 Bay Pkwy. #803 Brooklyn, NY ",11204,7183312200
Neighbor Care Pharmacy,"23-15 65th St. Brooklyn, NY ",11204,7183364772
Eliyahu's Pharmacy,"573 Kings Hwy. Brooklyn, NY ",11223,7186270485
Westside Pharmacy,"210 Avenue U Brooklyn, NY ",11223,7183734100
Harold's Pharmacy,"22-72 McDonald Ave. #1 Brooklyn, NY ",11223,7189964200
BT Marlboro Pharmacy Inc.,"28-45 86th St. Brooklyn, NY ",11223,7183734800
Light Pharmacy Inc.,"319 Avenue X Brooklyn, NY ",11223,7188727668
Beach Haven Pharmacy,"589 Avenue Z Brooklyn, NY ",11223,7186485999
Health Care Pharmacy,"24-02 Mermaid Ave. #2210 Brooklyn, NY ",11224,7189969900
Balaji Pharmacy,"17-26 Mermaid Ave. Brooklyn, NY ",11224,7189969000
Luna Park Pharmacy,"28-75 W. 8th St. #2 Brooklyn, NY ",11224,7189465444
SV Wellness Pharmacy,"21-73C 68th St. Brooklyn, NY ",11204,7189750530
Health Plus Pharmacy Corp.,"66-05 Bay Pkwy. Brooklyn, NY ",11204,7182320810
GM Pharmacy Inc.,"174 Avenue O Brooklyn, NY ",11204,7182567757
Archi Med Pharmacy Inc.,"6 Bay 50th St. Brooklyn, NY ",11214,7183331215
J&R Pharmacy,"23-02 Mermaid Ave. Brooklyn, NY ",11224,7182666286
A&G Pharmacy,"12-16 Neptune Ave. Brooklyn, NY ",11224,7189962277
Family Care NY Pharmacy,"170 Avenue U Brooklyn, NY ",11223,7189460101
Bay Park Pharmacy,"33-55 Neptune Ave. Brooklyn, NY ",11224,7183722700
Oceanside Pharmacy Inc.,"32-06 Mermaid Ave. Brooklyn, NY ",11224,7189964949
Community Care Pharmacy,"29-13 Surf Ave. Brooklyn, NY ",11224,7183725300
Quick Rx Specialty Pharmacy,"10-47 Surf Ave. Brooklyn, NY ",11224,7188195249
S&K Warbasse Pharmacy Inc.,"499 Neptune Ave. Brooklyn, NY ",11224,7184495177
Aid Pharmacy,"807 Kings Hwy. Brooklyn, NY ",11223,7183763313
Family Drugstore,"14-02 Kings Hwy. Brooklyn, NY ",11229,7183827700
Clear Pharmacy,"17-07 Kings Hwy. Brooklyn, NY ",11229,7189757680
Coney Island Chemist,"23-84 Coney Island Ave. Brooklyn, NY ",11223,3475877200
Brooklyn Chemists,"29-27 Avenue S Brooklyn, NY ",11229,7183823400
Sheepshead Bay Pharmacy,"35-58 Nostrand Ave. Brooklyn, NY ",11229,7186764966
Health Choice Pharmacy,"37-35 Nostrand Ave. Brooklyn, NY ",11235,7183689800
Bay Pharmacy Inc. ,"16-53 Sheepshead Bay Rd. Brooklyn, NY ",11235,7189343838
Sunshine Pharmacy,"16-22 Voorhies Ave. Brooklyn, NY ",11235,3474629779
Voorhies Health Pharmacy,"23-09 Voorhies Ave. Brooklyn, NY ",11235,7189752872
Pharmacy Depot,"317 Brighton Beach Ave. Brooklyn, NY ",11235,7186460001
L&S Pharmacy Inc.,"424 Brighton Beach Ave. #2F Brooklyn, NY ",11235,7183325881
One Stop Pharmacy,"12-20 Avenue P Brooklyn, NY ",11229,7183362244
Medicine Plaza Pharmacy,"13-12 Kings Hwy. Brooklyn, NY ",11229,7186270800
Ocean Pharmacy,"19-29 Kings Hwy. Brooklyn, NY ",11229,7189989595
Health Star Pharmacy,"14-22 Avenue U Brooklyn, NY ",11229,7186451227
Rx Choice Pharmacy,"19-08 Avenue U Brooklyn, NY ",11229,7183681190
This Way Pharmacy,"27-12 Avenue U Brooklyn, NY ",11229,7187697403
Lerds Pharmacy,"16-01 Gravesend Neck Rd. Brooklyn, NY ",11229,7183325330
Kings Bay Chemists,"36-10 Nostrand Ave. #5197 Brooklyn, NY",11229,7188913447
Eve Pharmacy,"28-36 Coney Island Ave. Brooklyn, NY ",11235,7187438585
G&G Pharmacy,"29-67 Ocean Ave. Brooklyn, NY ",11235,7186462800
Care Fast Pharmacy,"37-71 Nostrand Ave. Brooklyn, NY ",11235,7189754464
Pharmacy Express,"274 Brighton Beach Ave. Brooklyn, NY ",11235,7186480002
Rabinowitz Pharmacy,"518 Brighton Beach Ave. #1 Brooklyn, NY ",11235,7183323708
Shazia's Pharmacy,"31-66 Coney Island Ave. Brooklyn, NY ",11235,7188726090
Oceana Pharmacy,"32-11 Coney Island Ave. Brooklyn, NY ",11235,3478686394
Brighton 11th Pharmacy Inc.,"124 Brighton 11th St. Brooklyn, NY ",11235,7189340022
Pharmacy at The Wave Inc.,"104 West End Ave. Brooklyn, NY ",11235,7188914300
My Choice Pharmacy,"924 Kings Hwy. Brooklyn, NY ",11223,7183757700
Shlomo Pharmacy,"20-92 Coney Island Ave. Brooklyn, NY ",11223,7189984100
Kings Rx Pharmacy,"12-14 Kings Hwy. Brooklyn, NY ",11229,7189750781
Maurice Pharmacy,"802 Avenue U Brooklyn, NY ",11223,3474622877
All Rx Pharmacy II,"12-31 Avenue U Brooklyn, NY ",11229,7183757800
U15 Pharmacy,"15-06 Avenue U Brooklyn, NY ",11229,7183365883
Pharmacy 4 U,"19-19A Avenue U Brooklyn, NY ",11229,7186769770
Rightway Pharmacy,"25-11 Avenue U Brooklyn, NY ",11229,7188917900
V Pharmacy LLC,"21-24 Gravesend Neck Rd. Brooklyn, NY ",11229,7183680009
Just in Time Pharmacy,"21-26 Knapp St. Brooklyn, NY ",11229,7183325474
Monicas Pharmacy,"13-24 Sheepshead Bay Rd. Brooklyn, NY ",11235,7183327733
TN Pharmacy,"25-70 E. 17th St. Brooklyn, NY ",11235,7186462100
Right Care Pharmacy ,"12 Neptune Ave. Brooklyn, NY ",11235,7189754535
Oceania Pharmacy,"415 Brighton Beach Ave. Brooklyn, NY ",11235,7187695777
Zuckerman Pharmacy & Surgical,"701 Brighton Beach Ave. Brooklyn, NY ",11235,7187431800
Kings Highway Pharmacy & Medical Supply Inc.,"14-16 Kings Hwy. Brooklyn, NY ",11229,7183755757
Quick Care Pharmacy,"23-14 Coney Island Ave. Brooklyn, NY ",11223,7183755700
Prix Pharmacy,"33-40 Nostrand Ave. Brooklyn, NY ",11229,7185131585
Yafit Pharmacy Inc.,"21-63 E. 7th St. Brooklyn, NY ",11223,7189988651
LMD Pharmacy Inc.,"801 Avenue U Brooklyn, NY ",11223,7186271616
Ideal Care Pharmacy,"811 Avenue U Brooklyn, NY ",11223,7183821990
Quick Success Pharmacy,"16-10 Avenue U Brooklyn, NY ",11229,7183767600
Rx Express Pharmacy,"20-09 Avenue U Brooklyn, NY ",11229,7186769666
Homecrest V&I Pharmacy,"18-26 Gravesend Neck Rd. Brooklyn, NY ",11229,7188726655
Ocean A&R Pharmacy,"28-06 Ocean Ave. Brooklyn, NY ",11229,3474629550
Nostrand Health Pharmacy,"39-01 Nostrand Ave. Brooklyn, NY",11235,7185590887
Gem Pharmacy,"10 Brighton 11th St. Brooklyn, NY ",11235,7186764006
Brighton Care Pharmacy,"10-55 Brighton Beach Ave. Brooklyn, NY ",11235,9179339220
Sea Breeze Pharmacy & Medical Supply Inc.,"11-29 Brighton Beach Ave. Brooklyn, NY ",11235,7186460660
Tricare Pharmacy,"18-11 Kings Hwy. #1 Brooklyn, NY ",11229,7183829999
Thriftway Pharmacy,"19-17 Kings Hwy. Brooklyn, NY ",11229,7183393500
AAA Pharmacy & Medical Supply Inc.,"19-26 Kings Hwy. Brooklyn, NY ",11229,7183399393
Salute Pharmacy LLC,"21-13 Avenue V Brooklyn, NY ",11229,7185172272
Victory Pharmacy,"12-11 Avenue U Brooklyn, NY ",11229,7183829616
Nostrand Houses Pharmacy,"30-31 Avenue V Brooklyn, NY ",11229,7183320040
Alexs Pharmacy,"627 Gravesend Neck Rd. Brooklyn, NY ",11223,3474622356
Prestige Care Pharmacy,"11-90 Gravesend Neck Rd. Brooklyn, NY",11229,7186766691
Crystal Pharmacy Inc.,"29-50 Avenue X Brooklyn, NY ",11235,7189425800
U Pass Pharmacy,"27-69 Coney Island Ave. Brooklyn, NY ",11235,7186761560
SOS Pharmacy & Natural Health Store,"12-01 Avenue Z Brooklyn, NY ",11235,8557676337
Lemberg's Pharmacy,"191 Neptune Ave. Brooklyn, NY ",11235,7183684336
Neptune Pharmacy Inc.,"30-80 Coney Island Ave. Brooklyn, NY ",11235,7183325263
Anteka Rx Inc.,"511 Brighton Beach Ave. Brooklyn, NY ",11235,7183324002
International Holistic Pharmacy,"30-78 Brighton 6th St. Brooklyn, NY ",11235,7189753733
Saab Pharmacy,"291 Neptune Ave. Brooklyn, NY ",11235,7183325577
Bellecare Pharmacy,"255-15 Hillside Ave. Queens, NY ",11004,7184132772
A&M Pharmacy,"256-17 Hillside Ave. Queens, NY ",11004,7183435900
Vitality Drug & Surgical ,"257-07 Union Tpke. Queens, NY ",11004,7183430070
Tower Drugs,"272-68 Grand Central Pkwy. Queens, NY ",11005,7186319300
Union Specialty Pharmacy,"265-01 Union Tpke. Queens, NY ",11040,7187495961
The Chemist Shop,"30-15 38th Ave. Queens, NY ",11101,7184720900
Agustin Pharmacy,"39-20 29th St. Long Island City, NY ",11101,7189378160
AHF Pharmacy City View,"23-07 Astoria Blvd. Queens, NY ",11102,7185452550
Hyatt Pharmacy,"23-21 30th Ave. Queens, NY ",11102,3478087726
Pharmacychoice Pharmacy 2,"25-09 30th Ave. Long Island City, NY ",11102,3476390007
Newtown Pharmacy Inc.,"28-04 31st St. Astoria, NY ",11102,7187289100
New Grace Pharmacy,"31-17 30th Ave. Astoria, NY ",11102,7182556974
EZ Pharmacy & Surgical,"803 Astoria Blvd. Astoria, NY ",11102,7187771100
Steinway Pharmacy,"25-78 Steinway St. Astoria, NY ",11103,7187286070
One Source Pharmacy & Health Store,"25-90 Steinway St. Astoria, NY ",11103,7187215900
Organic Chemists Pharmacy,"28-15 Steinway St. Astoria, NY ",11103,7185853095
Health Hub Pharmacy,"30-29 Steinway St. Queens, NY ",11103,7182785003
Athena's Pharmacy,"32-84 Steinway St. Queens, NY ",11103,7182047867
30th Ave Pharmacy,"36-06 30th Ave. Astoria, NY ",11103,7187778544
Astoria Organix Pharmacy,"37-20 31st Ave. Astoria, NY ",11103,7182551338
Nile City Pharmacy,"40-10 25th Ave. Astoria, NY ",11103,7186852880
Wellness Center Pharmacy,"40-13 Bdwy. Astoria, NY ",11103,7189560060
Avenue Chemists Pharmacy,"45-01 30th Ave. Astoria, NY ",11103,7185451010
Sunnyside Chemist's Pharmacy,"39-29 47th Ave. Long Island City, NY ",11104,9177450356
Greenpoint Pharmacy,"40-26 Greenpoint Ave. Queens, NY ",11104,7189371750
Rockway Community Pharmacy,"43-20 43rd Ave. Sunnyside, NY ",11104,7189370890
United Dhaka Pharmacy,"45-04 Greenpoint Ave. Queens, NY ",11104,9173964944
Family Pharmacy,"45-60 43rd St. Queens, NY ",11104,7183496767
Sunnyside Pharmacy,"48-11 Skillman Ave. Sunnyside, NY ",11104,7187291400
Your Wellness and Health Pharmacy,"21-07 21st Ave. Queens, NY ",11105,7185452121
Pharmacare Plus,"21-09 31st St. Queens, NY ",11105,3478480455
Double G Pharmacy,"22-82 31st St. Queens, NY ",11105,7187283127
Olympia Chemists Inc. ,"23-18 31st St. #6 Astoria, NY",11105,7182672766
Harpell's Ditmars Pharmacy,"23-25 31st St. Queens, NY ",11105,7182785454
Crescent Apothecary,"25-01 Ditmars Blvd. Queens, NY ",11105,7187771110
Crown Chemists Ltd.,"33-20 Ditmars Blvd. Astoria, NY ",11105,7182786777
Astor Surgical Pharmacy Inc.,"35-18 Ditmars Blvd. Astoria, NY ",11105,7189329800
Triboro Pharmacy ,"37-20 Ditmars Blvd. Astoria, NY ",11105,7187777033
Metrocare Pharmacy,"21-12B 36th Ave. Queens, NY ",11106,7186060068
Get Well Rx Pharmacy,"23-24 Bdwy. Long Island City, NY ",11106,7187779355
Crescent Chemist,"24-12 34th Ave. Astoria, NY ",11106,7183833882
Strand Pharmacy,"25-01 Bdwy. Astoria, NY ",11106,7187213650
Amin Pharmacy,"29-03 36th Ave. Astoria, NY ",11106,7187866611
Health Quest Pharmacy,"30-07 31st Ave. Queens, NY ",11106,7187770747
Long Island City Chemists,"30-12 36th Ave. Long Island City, NY ",11106,7183928049
Merlin Chemists,"31-64 21st St. Queens, NY ",11106,7182678900
Broadway Drugs Inc.,"34-08 Bdwy. Queens, NY ",11106,7187281212
Ravensview Pharmacy,"34-49 21st St. Long Island City, NY ",11106,7187295199
Titan Pharmacy,"35-19 31st Ave. Queens, NY ",11106,7182678063
Equal Care Pharmacy,"133-42 39th Ave, #208 Flushing, NY ",11354,7183217117
Roosevelt Pharmacy,"133-55 Roosevelt Ave. Queens, NY ",11354,7188881500
Roosevelt Rx Pharmacy,"133-57 Roosevelt Ave. Flushing, NY ",11354,7188881558
Bio Plus Pharmacy Inc.,"135-02 Roosevelt Ave. Flushing, NY ",11354,7183596333
168 Pharmacy,"135-05 38th Ave. Flushing, NY ",11354,9294566550
Amazing Care Pharmacy,"135-19 Roosevelt Ave. Flushing, NY ",11354,7188862826
Comfort Drugs,"135-23 Roosevelt Ave. Queens, NY ",11354,7187626119
Forever Pharmacy Inc.,"135-34 39th Ave. Queens, NY ",11354,7188887000
Buy-Rite Pharmacy III,"136-10 38th Ave. Queens, NY ",11354,7183535737
HP Pharmacy,"136-17 38th Ave. Queens, NY ",11354,7188868055
Rx Family Care Drugs,"136-18 39th Ave. Flushing, NY ",11354,7188869136
88 Pharmacy Inc. ,"136-19 37th Ave. Queens, NY ",11354,7184611234
New World Pharmacy,"136-20 Roosevelt Ave #107 Flushing, NY ",11354,7189618292
AA Rx Pharmacy,"136-33 37th Ave. Queens, NY ",11354,7183538600
Starside Drugs,"136-36 39th Ave. Flushing, NY ",11354,7183211716
Lambda Health,"136-47 Roosevelt Ave. Queens, NY ",11354,2127962168
DoReMi Pharmacy,"136-58 39th Ave. Flushing, NY",11354,7186613377
Capstone Health Inc.,"136-68 Roosevelt Ave. #605 Queens, NY ",11354,2127846853
MC Drugs,"136-70 Roosevelt Ave. Queens, NY ",11354,7187622099
Lewis Pharmacy,"136-98 Roosevelt Ave. Flushing, NY ",11354,7184615500
Top Care Pharmacy Corp.,"137-04 Northern Blvd. Flushing, NY ",11354,7188868833
J W Pharmacy LLC,"141-02 Northern Blvd. Queens, NY ",11354,7187623784
My Hope Pharmacy LLC,"141-14 Northern Blvd. Flushing, NY ",11354,7183538202
NY Family Pharmacy,"142-46 Roosevelt Ave. Flushing, NY ",11354,7188880808
Parsons Pharmacy,"144-14 Northern Blvd. Flushing, NY ",11354,7188887817
Morami Pharmacy Inc.,"144-73 Northern Blvd. Flushing, NY ",11354,7188869100
Seoul Pharmacy,"149-03 Northern Blvd. Flushing, NY ",11354,7188880101
Smile Pharmacy,"150-07 Northern Blvd. Queens, NY ",11354,7183583800
JOA Pharmacy,"150-15 Northern Blvd. Queens, NY ",11354,9175637502
Heart Pharmacy,"152-20 Northern Blvd. Queens, NY ",11354,7187990800
AC Northern Pharmacy,"154-16 Northern Blvd. Queens, NY ",11354,7188860060
NY Flushing Pharmacy,"157-10 Northern Blvd. Flushing, NY ",11354,7184617200
Onpoint Pharmacy,"25-39 Parsons Blvd. Flushing, NY ",11354,7187628041
OK Pharmacy & Surgical ,"34-04 Union St. Queens, NY ",11354,7188862227
Leavitt Pharmacy,"35-19 Leavitt St. #S1 Queens, NY ",11354,7184451888
Newcare Pharmacy Inc.,"36-20 Union St. Flushing, NY ",11354,7188863488
Dongseo Pharmacy,"36-22A Union St. Queens, NY ",11354,7188887811
Union Pharmacy,"36-32 Union St. #A Queens, NY ",11354,7189616010
Flusihng Drugs Inc.,"37-02 Union St. #1 FL Flushing, NY ",11354,9175631069
Primacare Plus Pharmacy,"37-03 Main St. Queens, NY ",11354,7188865683
Solomon Pharmacy,"37-04 Union St. #1 FL Queens, NY ",11354,7813212526
HK Pharmacy,"37-11 Main St. Flushing, NY ",11354,7188860866
123 Pharmacy Inc.,"37-12 Prince St. #F14 Queens, NY ",11354,7189711690
Main Care Pharmacy,"37-18 Main St. Queens, NY ",11354,7188860205
Premium Pharmacy 2,"37-19 Main St. Queens, NY",11354,7188867178
Lucky Care Pharmacy Inc.,"37-20 Prince St. #1A Flushing, NY ",11354,7183587000
H2 Pharmacy Corp.,"38-09 Main St. Flushing, NY ",11354,7187621168
Lotus Health Pharmacy,"38-10 138th St. Queens, NY ",11354,7185096858
Silver Care Pharmacy,"38-19 Union St. #102 Flushing, NY ",11354,7184458585
Elmcare Pharmacy,"39-02 Union St. #2 Flushing, NY ",11354,7186611122
Prince Pharmacy,"39-07 Prince St. #1E Queens, NY ",11354,7188889596
All Rx Pharmacy,"40-22 Main St. Queens, NY ",11354,7184600666
"Kaneda Pharmacy, LLC","40-32 Union St. Flushing, NY ",11354,7188881489
Equal Care III Pharmacy,"40-59 College Point Blvd. Queens, NY ",11354,7188889338
Apple Pharmacy,"132-21 41st Ave. Queens, NY ",11355,7189393335
Elizabeth Pharmacy Inc.,"132-31 41st Ave. Queens, NY ",11355,7183535948
American Health Pharmacy Inc.,"133-10 41st Rd. Queens, NY ",11355,9293290210
GM Pharmacy,"133-18 41st Rd. Queens, NY ",11355,7187990866
Boling Pharmacy,"133-37 41st Rd. Queens, NY ",11355,7183219876
Wellming Drug Inc. ,"133-43 41st Rd. Flushing, NY ",11355,7183213978
Sanford Pharmacy,"133-47 Sanford Ave. Flushing, NY ",11355,7184608329
City Pharmacy Inc.,"133-58 41st Rd. Flushing, NY ",11355,7188889483
Cherry Pharmacy Inc. ,"134-40 Cherry Ave. #S1 Flushing, NY ",11355,7183535001
All Rx Pharmacy III LLC,"136-19 41st Ave #1 FL Queens, NY ",11355,7188880580
Royal Care Drugs Inc. ,"136-71 41st Ave. Queens, NY ",11355,7188880004
Amaya Pharmacy,"140-75 Ash Ave. #2C Queens, NY ",11355,7183623336
Everest Drugs,"144-10 45th Ave. Queens, NY ",11355,7184614452
World Pharmacy,"149-01 41st Ave. Queens, NY ",11355,7183584800
Kiosk Pharmacy,"41-01 Kissena Blvd. Queens, NY ",11355,7184632261
Corner Pharmacy,"41-03 Union St. Flushing, NY ",11355,7184603825
Premium Pharmacy,"41-12A Main St. Queens, NY ",11355,7188867128
Bettercare Pharmacy,"41-17 Kissena Blvd. Queens, NY ",11355,9179080788
Primacare Pharmacy Inc.,"41-28 Main St. #5 Flushing, NY ",11355,7188868968
KM Pharmacy,"41-35 Kissena Blvd. Queens, NY ",11355,7188880110
Medi-Space Drugs,"41-39 Main St. Queens, NY ",11355,7189613373
BR Drugs Pharmacy,"41-41 Kissena Blvd. #106 Flushing, NY ",11355,7183538858
Nen York Forty One LLC,"41-44 Main St. Queens, NY",11355,7183598881
Horizon Pharmacy,"41-46 Main St. Queens, NY ",11355,7183598881
First Pharmacy,"41-67 Bowne St. Flushing, NY ",11355,7184630333
Allstar Pharmacy Inc.,"41-69 Kissena Blvd. Queens, NY ",11355,7188866618
Super Care Pharmacy Inc.,"41-70 Main St. Flushing, NY ",11355,9175631730
Icon Pharmacy,"41-73B Bowne St. Queens, NY ",11355,7188863082
Allday Pharmacy Inc.,"41-99 Main St. #202A Flushing, NY ",11355,7188863288
Kissena Rx Pharmacy Inc.,"42-07 Kissena Blvd. Queens, NY ",11355,9175631079
C K Pharmacy Inc. ,"42-13 Main St. Queens, NY",11355,7185398999
Arcadia Health Pharmacy,"42-35 Main St. Flushing, NY ",11355,7188786999
Rx & Beyond Inc.,"42-69 Main St. Flushing, NY ",11355,7183530060
Well Care Pharmacy,"42-83 Main St. Flushing, NY ",11355,7183531350
Healthy Happy Pharmacy Inc.,"43-13 Main St. Flushing, NY ",11355,7183218381
Mannings Surgical Supplies & Confucius Pharmacy,"43-23 Main St. Queens, NY ",11355,7188869080
168 Longevity Pharmacy,"43-43 Main St. Flushing, NY ",11355,7187992881
Flushing Family Pharmacy,"43-67 147th St. Flushing, NY",11355,7188881108
Victoria Pharmacy,"44-45 Kissena Blvd. #A Flushing, NY ",11355,7188866200
Horizon Pharmacy,"46-30 Kissena Blvd. Flushing, NY ",11355,7188881918
Superior Drugmart,"60-10A Kissena Blvd. Flushing, NY ",11355,7184458450
Village Pharmacy,"12-27 150th St. Whitestone, NY ",11357,3477324772
Harpell Chemists,"12-65 150th St. Whitestone, NY ",11357,7187677868
Whitestone Pharmacy,"150-43 14th Ave. Flushing, NY ",11357,7187670618
Metro Corner Pharmacy,"166-60 17th Ave. Queens, NY",11357,7182253777
Avail Pharmacy,"161-03 29th Ave. Flushing, NY ",11358,7187672400
Northern Pharmacy,"164-16 Northern Blvd. Flushing, NY ",11358,7184452470
Northern Pharmacy,"192-06 Northern Blvd. Queens, NY",11358,7182794888
Auburndale Pharmacy,"192-15 47th Ave. Queens, NY ",11358,7183523200
Watsons Pharmacy,"192-21 Station Rd. Flushing, NY",11358,3477329724
Union Pharmacy,"194-06 Northern Blvd. Queens, NY ",11358,3474381400
Harpell Pharmacy & Market,"25-77 Francis Lewis Blvd. Flushing, NY ",11358,7184230300
Francis Lewis Pharmacy,"33-33 Francis Lewis Blvd. Queens, NY ",11358,9295532288
Jangsu Pharmacy,"42-23 162nd St. Queens, NY ",11358,7188861121
Mommy Pharmacy,"43-53 162nd St. Queens, NY",11358,7187990830
Franconia Pharmacy,"45-02 162nd St. Flushing, NY ",11358,7183597780
Baybridge Pharmacy,"208-48 Cross Island Pkwy. Bayside, NY ",11360,7187519911
Plus Drugs,"209-31 Northern Blvd. Bayside, NY ",11361,7183521234
Woori Pharmacy,"219-15 Northern Blvd. Bayside, NY ",11361,7182292001
Sterling Pharmacy,"38-01 Bell Blvd. Queens, NY ",11361,7182247300
Novo Pharmacy,"45-64 Bell Blvd. Bayside, NY ",11361,7182251923
Bell Boulevard Pharmacy,"47-48 Bell Blvd. Queens, NY ",11361,7182292344
Xcel Pharmacy Inc. ,"245-15 Northern Blvd. Queens, NY ",11362,7187097818
Accuscript Pharmacy,"245-34 Horace Harding Expy. Queens, NY ",11362,7182291450
Dana Pharmacy,"248-12 Northern Blvd. Queens, NY ",11362,7182243233
Little Neck Drug Store,"252-11 Northern Blvd. Little Neck, NY ",11362,7186318787
Moduna Pharmacy,"253-34 Northern Blvd. Queens, NY ",11362,5164415400
Windsor Pharmacy & Surgicals,"215-19 73rd Ave. Oakland Gardens, NY ",11364,7184288200
Bayside Pharmacy,"221-36 Horace Harding Expy. Queens, NY ",11364,7182241234
Turnpike Chemist Pharmacy,"224-21 Union Tpke. Queens, NY ",11364,3478948014
MJ88 Pharmacy,"61-36 Springfield Blvd. Queens, NY ",11364,7188190881
Genesis Pharmacy,"65-58 Fresh Meadow Ln. Fresh Meadows, NY ",11365,7183534477
Jewel Pharmacy,"70-51 Parsons Blvd. Fresh Meadows, NY",11365,7185911040
Queens Medical Associates,"176-60 Union Tpke. #360 Fresh Meadows, NY ",11366,7183123460
NYC Drug Store,"159-16 Union Tpke. Fresh Meadows, NY",11366,7183800999
Union Wellness Pharmacy Inc. ,"161-02 Union Tpke. Flushing, NY",11366,7184806726
My Rx Pharmacy,"178-15 Union Tpke. Fresh Meadows, NY",11366,7189696979
Tunpike Meds Rx Inc.,"179-14 Union Tpke. Fresh Meadows, NY",11366,7187499915
Ilana's Pharmacy,"180-30 Union Tpke. Fresh Meadows, NY",11366,7189699500
Nexus Drugs Inc.,"75-43 Parsons Blvd. #2 Queens, NY",11366,7183042196
All in One Pharmacy,"75-68 187th St. Flushing, NY",11366,7184874939
Hilltop Pharmacy,"75-95 Utopia Pkwy. Fresh Meadows, NY",11366,7189691880
Avonora Pharmacy,"149-01 Union Tpke. Flushing, NY ",11367,7189693300
Salzman Chemists,"149-19 Union Tpke. Queens, NY ",11367,7183805440
S&M Pharmacy,"68-50 Main St. Queens, NY ",11367,7185444656
Vital Med Pharmacy,"69-42 Main St. Flushing, NY ",11367,7185440700
Art Pharmacy,"70-60 Kissena Blvd. Flushing, NY ",11367,7182639400
Mirage Pharmacy,"71-44 Main St. Queens, NY ",11367,7184873050
Shop N Save Pharmacy Inc.,"72-06 Main St. Queens, NY ",11367,7186746220
Shalom Pharmacy,"72-48 Main St. Queens, NY ",11367,7185448500
Kissena Drugs & Surgical Supply,"72-63 Kissena Blvd. #4 Queens, NY ",11367,7187937658
Main Pharmacy,"72-71 Main St. Flushing, NY ",11367,7182615608
Affinity Pharmacy,"73-07 Main St. Flushing, NY ",11367,7184801522
Norden Drugs,"79-01 Main St. Flushing, NY ",11367,7189693314
Northern Blvd Pharmacy,"100-16 Northern Blvd. Queens, NY ",11368,7188991700
VIP Pharmacy Corp.,"10-05 Roosevelt Ave. Corona, NY ",11368,7188981100
Freya Pharmacy Inc.,"101-19 39th Ave. Corona, NY ",11368,3476492525
Best Five Star Pharmacy,"103-08 Roosevelt Ave. Corona, NY ",11368,7184769000
Corona Pharmacy Inc.,"104-09A Corona Ave. Corona, NY ",11368,7186852388
Queens Midnight Pharmacy,"104-26 Roosevelt Ave. Flushing, NY ",11368,7182058340
Corona Heights Pharmacy,"106-07 Corona Ave. Queens, NY ",11368,7186995099
Sol's Pharmacy,"107-18 37th Dr. Queens, NY ",11368,7186394107
Corona Farmacia,"111-19 Roosevelt Ave. Flushing, NY ",11368,7184765660
Myven Pharmacy,"35-35B Junction Blvd. Corona, NY ",11368,7187798050
Big Apple Pharmacy,"37-71 103rd St. Queens, NY ",11368,7187794450
Square Pharmacy,"40-04 104th St. Flushing, NY ",11368,7186393800
National Pharmacy,"40-15 National St. Corona, NY ",11368,7187799080
Mi Botica Pharmacy,"40-18A Junction Blvd. Queens, NY ",11368,7183979510
Galuvi Pharmacy,"40-23 Junction Blvd. Flushing, NY ",11368,7188989833
Santiago Pharmacy,"40-43 Junction Blvd. Flushing, NY ",11368,7182057900
Pinnacle Pharmacy,"59-08 99th St. Corona, NY ",11368,7182719500
Super Rx Pharmacy,"59-08 99th St. Flushing, NY ",11368,7182719500
21st Century Pharmacy,"96-05 57th Ave. Queens, NY ",11368,7186998899
Corona Wellness Pharmacy,"96-16 37th Ave. Queens, NY ",11368,9178326560
Brand Rx Pharmacy Corp.,"97-05A 57th Ave. Corona, NY ",11368,7183932300
Sherwood Pharmacy,"97-21 57th Ave. Queens, NY ",11368,7186997700
Laguardia Pharmacy,"101-22 Astoria Blvd. Queens, NY ",11369,7184782576
Feel Better Pharmacy,"32-61 85th St. Queens, NY ",11370,7188981001
Drug Rite Pharmacy,"76-90 21st Ave. East Elmhurst, NY ",11370,7187286878
Health Guard Pharmacy,"33-13 Junction Blvd. Queens, NY ",11372,7185076800
Queens Express Pharmacy,"34-54 Junction Blvd. Queens, NY ",11372,7185651005
St. Michael's Pharmacy,"37-05 83rd St. Jackson Heights, NY ",11372,7188033330
81 Health Pharmacy,"37-59B 81st St. Jackson Heights, NY",11372,7184339816
Vida Care Pharmacy,"37-64 90th St. Queens, NY ",11372,7187792221
Al Kosto Pharmacy,"37-65 90th St. Jackson Heights, NY ",11372,7184462068
Jackson Pharmacy Inc.,"71-02 37th Ave. Jackson Heights, NY ",11372,7182556723
Jackson Heights Pharmacy,"71-34 Roosevelt Ave. Queens, NY ",11372,7187791444
Acare Pharmacy LLC DBA Jannat Pharmacy,"72-03 35th Ave. Jackson Heights, NY ",11372,7187324288
MedRite Pharmacy,"73-16 Roosevelt Ave. Jackson Heights, NY ",11372,9178326035
Gulshan Pharmacy,"73-21 Bdwy. Jackson Heights, NY ",11372,7186725500
Image Heights Pharmacy,"75-01 37th Ave. Queens, NY ",11372,7184240100
Bangladesh Farmacia,"75-10 Roosevelt Ave. Queens, NY ",11372,7184069393
Advanced Rx Pharmacy,"76-12 Roosevelt Ave. Jackson Heights, NY ",11372,7188030500
Super Pharmacy Unica,"76-17 37th Ave. Jackson Heights, NY ",11372,7186511400
Frank's Pharmacy,"77-01 37th Ave. Queens, NY ",11372,7188992600
Major Rx Pharmacy Inc.,"77-02 Roosevelt Ave. #C Queens, NY ",11372,7182551717
B&B Pharmacy,"79-08 37th Ave. Jackson Heights, NY ",11372,7185336623
Roosevelt City Pharmacy,"79-18 Roosevelt Ave. Queens, NY ",11372,7182551065
VIVA Pharmacy & Wellness,"80-14 Northern Blvd. Queens, NY ",11372,7184509595
Superior Pharmacy,"80-22 Roosevelt Ave. Queens, NY ",11372,7184781135
Nueva Vida Pharmacy Inc.,"81-25 37th Ave. Jackson Heights, NY ",11372,7188990200
Naima Pharmacy,"82-10 37th Ave. Jackson Heights, NY ",11372,7182055001
My Family Pharmacy,"82-15 Northern Blvd. Queens, NY",11372,7184409201
77 Pharmacy,"82-15 Roosevelt Ave. Queens, NY ",11372,7188987777
Mega Care Pharmacy,"84-06 37th Ave. Jackson Heights, NY ",11372,3472423124
Farmacia America,"84-25 Roosevelt Ave. Jackson Heights, NY ",11372,7184339094
J&M Pharmacy,"85-07 Roosevelt Ave. Jackson Heights, NY ",11372,9173964794
Nuestra Pharmacy,"85-24 37th Ave. Jackson Heights, NY ",11372,7184243333
Health Choice Pharmacy,"86-10 Roosevelt Ave. Jackson Heights, NY ",11372,7188981548
Vida Sana Pharmacy,"88-20 37th Ave. Queens, NY ",11372,7184339800
Santa Fe Pharmacy,"88-31 37th Ave. Queens, NY ",11372,7186517400
Tristate Pharmacy,"89-24 37th Ave. Queens, NY ",11372,7185651900
Santo Domingo Pharmacy,"90-09 37th Ave. Jackson Heights, NY ",11372,7184248798
Three J's Pharmacy Inc.,"90-12 Elmhurst Ave. Flushing, NY ",11372,7188982211
Victory Pharmacy,"90-20 Elmhurst Ave. #1 Jackson Heights, NY",11372,7186511177
Optima Pharmacy,"91-01 37th Ave. Jackson Heights, NY ",11372,7184249275
Baron Specialty Pharmacy,"93-05 37th Ave #1E Queens, NY ",11372,7184069196
Guardiola Pharmacy Inc.,"93-12 Roosevelt Ave. Queens, NY ",11372,7186729700
JAC Pharmacy & Surgical Supplies,"93-15 Roosevelt Ave. Jackson Heights, NY ",11372,7184786863
RealValue Patients Pharmacy,"94-01 37th Ave. #7 Jackson Heights, NY ",11372,3476991237
37th Ave Pharmacy,"95-07 Roosevelt Ave. Flushing, NY ",11372,7184248684
Junction Blvd Pharmacy,"95-53 Roosevelt Ave. Queens, NY ",11372,7183964030
Lavida Pharmacy,"40-20 82nd St. Queens, NY ",11373,7184262525
Four B's Pharmacy,"40-35 95th St. #2 Queens, NY ",11373,7182052411
Healthy Pharmacy,"59-17 Junction Blvd. Queens, NY ",11373,7187772020
Elmhurst Pharmacy,"75-23 Bdwy. Flushing, NY ",11373,7185658667
Elmhurst Pharmacy & Home Infusion,"81-06 Baxter Ave. Flushing, NY ",11373,7185072299
Horizon Pharmacy III,"81-14 Bdwy. Elmhurst, NY ",11373,7188031188
Elmway Pharmacy,"82-45 Bdwy. Queens, NY ",11373,7188032288
Hallmark Pharmacy,"82-85 Bdwy. Queens, NY ",11373,7184260300
Getting Well Rx Pharmacy & Medical Supply,"82-86 Bdwy. Queens, NY ",11373,7185658388
YK Pharmacy,"83-06 Bdwy. Queens, NY ",11373,7182058828
GoGo Pharmacy LLC,"83-09 Bdwy. Elmhurst, NY ",11373,9295220393
Care First Pharmacy,"83-30 Bdwy. Queens, NY ",11373,7182050588
Skycare Pharmacy Inc.,"85-29 Grand Ave. Elmhurst, NY ",11373,7186852678
New Town Pharmacy,"86 Justice Ave. #15 Queens, NY ",11373,7187602600
Elmway II Pharmacy Inc.,"86-07 51st Ave. Flushing, NY ",11373,7186991882
Home & Home Pharmacy,"86-18 Whitney Ave. Flushing, NY ",11373,7185058688
Frost Pharmacy,"86-52 Queens Blvd. Queens, NY ",11373,7184573192
Saad Pharmacy,"87-37 Britton Ave. Queens, NY ",11373,7184769100
Broadway Pharmacy,"88-08 55th Ave. Queens, NY ",11373,7188033005
Star Pharmacy,"89-41 Elmhurst Ave. Flushing, NY ",11373,7182050011
Gaga Pharmacy,"90-05 Corona Ave. Elmhurst, NY ",11373,7186996666
Grace Pharmacy,"91-01 43rd Ave. Queens, NY ",11373,7184261073
Rapid Rx Pharmacy,"93-30 43rd Ave. Queens, NY ",11373,7182055400
Franklin Pharmacy,"94-31 59th Ave Elmhurst, NY ",11373,7185927200
Cedars Pharmacy,"95-19 57th Ave. Queens, NY ",11373,7182719429
Neighborhood Health Rx Pharmacy,"100-18 67th Ave. Flushing, NY ",11374,7189977700
AJ Woodhaven Pharmacy,"62-04B Woodhaven Blvd. Rego Park, NY ",11374,7188992001
Your Choice Pharmacy,"63-106 Woodhaven Blvd. Rego Park, NY ",11374,7186068965
Greenway Health and Pharmacy Inc.,"65-47 99th St. Rego Park, NY ",11374,3475271388
Rego Park Pharmacy,"66-01 Saunders St. Rego Park, NY ",11374,7182756666
All Source Pharmacy & Surgical,"91-09 63rd Dr. Queens, NY ",11374,7182556100
R&M Pharmacy,"91-35 63rd Dr. Queens, NY ",11374,7186849454
Vera 1 Pharmacy,"94-02 63rd Dr. Rego Park, NY ",11374,7189971777
Ready Rx Pharmacy,"95-16 Queens Blvd. Rego Park, NY ",11374,7182755300
City Rx Pharmacy,"95-25 Queens Blvd. Queens, NY",11374,7184594880
Opti Health Pharmacy,"96-14 63rd Dr. #100 Rego Park, NY ",11374,7187778111
Top Choice Pharmacy,"97-06 Queens Blvd. Rego Park, NY ",11374,7183815100
NetRx Pharmacy,"97-10 Queens Blvd. Queens, NY ",11374,7186852553
Med Rx Pharmacy Inc.,"97-27 Queens Blvd. Flushing, NY",11374,7188978500
63rd Rx Corp. ,"98-55 63rd Rd. Queens, NY ",11374,7188974747
Levins Drugs,"98-90 Queens Blvd. Flushing, NY ",11374,7184591500
Neighborhood Chemists Corp.,"100-17 Queens Blvd. Queens, NY ",11375,7189971700
Forest Hills Rx Inc.,"101-04 Queens Blvd. Flushing, NY ",11375,7189978200
Simon's Pharmacy,"101-17 Queens Blvd. Forest Hills, NY ",11375,7189977333
Ascan Pharmacy Inc.,"101-21 Metropolitan Ave. Flushing, NY ",11375,7187936747
Custom Rx Pharmacy,"102-03 Queens Blvd. Forest Hills, NY ",11375,7188304500
Pharmacy Romiran Inc. ,"102-10 Metropolitan Ave. #2 Queens, NY ",11375,7188802842
Colony Drugs & Surgicals,"103-19 Queens Blvd. Forest Hills, NY ",11375,7188974888
Reliable Pharmacy,"107-10 71st Rd. Forest Hills, NY ",11375,7188801514
L&M Pharmacy & Surgical,"110-62 Queens Blvd. Forest Hills, NY ",11375,7188801418
Traymore Chemists Inc. ,"110-80 Queens Blvd. Queens, NY ",11375,7182618440
Forest Hills Chemists Pharmacy,"112-14 Queens Blvd. Forest Hills, NY",11375,7184808200
MB Pharmacy & Surgical,"114-57 Queens Blvd. Forest Hills, NY ",11375,7182681900
Queens Central Pharmacy Inc.,"116-08 Queens Blvd. Queens, NY ",11375,7182688060
Healthy Corner Pharmacy,"116-65 Queens Blvd. Queens, NY ",11375,7182616699
Forest Hills Pharmacy,"63-65 108th St. Queens, NY ",11375,7182756555
Carol Pharmacy,"64-28 108th St. Forest Hills, NY ",11375,7184597711
Burns Pharmacy,"68-04 Burns St. Forest Hills, NY",11375,7187930400
J&D Pharmacy,"71-68 Yellowstone Blvd. Forest Hills, NY ",11375,7185447182
You First Pharmacy,"72-16 Austin St. Forest Hills, NY ",11375,7185443200
N&J Pharmacy,"73-06 Austin St. Forest Hills, NY ",11375,7185753515
VNS Pharmacy,"93-05 63rd Dr. Rego Park, NY ",11375,7189976900
Glory Pharmacy,"98-14 Metropolitan Ave. Queens, NY ",11375,9173006041
Mercy Pharmacy & Surgicals Supplies,"30-100 51st St. Woodside, NY ",11377,7182040026
Mikhail Pharmacy Corp,"43-01 48th Ave. Queens, NY ",11377,9177451411
Woodside Pharmacy,"49-02 Queens Blvd. Woodside, NY ",11377,7182050550
Skillman Ave Pharmacy,"50-06 Skillman Ave. Woodside, NY ",11377,7185655454
Roosevelt Chemists Pharmacy,"53-11 Roosevelt Ave. Queens, NY ",11377,7182556355
Varela Pharmacy,"53-14 Roosevelt Ave. Queens, NY ",11377,9178326095
KZ Pharmacy,"53-25 Roosevelt Ave. Queens, NY ",11377,3479353224
QW Pharmacy Inc.,"54-03 Roosevelt Ave. Queens, NY ",11377,9177450444
Zarchy Pharmacy,"57-21 Roosevelt Ave. Queens, NY ",11377,7184243286
JMD Pharmacy Inc.,"58-09 Woodside Ave. Flushing, NY ",11377,9295220858
Tazmi Pharmacy,"59-05 Roosevelt Ave. Flushing, NY ",11377,7182058880
Big Six Pharmacy & Discount Store,"61-10 Queens Blvd. Woodside, NY ",11377,7186060422
Bismillah Drugs Inc. ,"64-09 Bdwy. Woodside, NY ",11377,7186852017
Roosevelt Aid Pharmacy,"65-08 Roosevelt Ave. Queens, NY ",11377,3474486826
HA Pharmacy,"69-11C Roosevelt Ave. Woodside, NY ",11377,9294633175
Hill Pharmacy,"53-82 65th Pl. Maspeth, NY ",11378,7814294646
Eagle Pharmacy,"64-02 Flushing Ave. Queens, NY ",11378,7184161749
Ridgewood Pharmacy II,"66-38 Grand Ave. Flushing, NY ",11378,7184248273
Grand Care Pharmacy,"66-56 Grand Ave. Queens, NY ",11378,7184466656
Grand Avenue Pharmacy,"69-29 Grand Ave. Maspeth, NY ",11378,7188986882
Pain Relief Rx Inc. ,"63-03 Dry Harbor Rd. Queens, NY ",11379,7182556443
D&S Pharmacy LLC,"64-71 Dry Harbor Rd. Middle Village, NY ",11379,7186852129
Middle Village Pharmacy Corp.,"74-04 Metropolitan Ave. Flushing, NY ",11379,7183263072
Colombo's Pharmacy,"75-51 Metropolitan Ave. Queens, NY ",11379,7184189700
Rite Med Pharmacy,"311 St. Nicholas Ave. #C Queens, NY ",11385,7183662268
Ridgewood Pharmacy,"389 Onderdonk Ave. Ridgewood, NY ",11385,7183813622
Catalpa Chemists Pharmacy,"57-01 Catalpa Ave. Queens, NY ",11385,7183663871
Sherman Pharmacy 2,"58-10 Myrtle Ave. Flushing, NY ",11385,7186288190
Grandview Pharmacy,"5-90 Grandview Ave. Flushing, NY ",11385,7184562200
Nature's Way Pharmacy,"60-27 Myrtle Ave. Ridgewood, NY ",11385,3479873585
ARD Pharmacy,"60-61 Myrtle Ave. Queens, NY ",11385,7184174154
MRB Forest Grove Pharmacy,"63-59 Forest Ave. Queens, NY ",11385,7183660814
Myrtle Express Pharmacy ,"64-16 Myrtle Ave. Queens, NY ",11385,9292980281
Top Choice Pharmacy,"65-05 Myrtle Ave. Glendale, NY",11385,7183815100
JRX Pharmacy,"65-15 Fresh Pond Rd. Flushing, NY ",11385,7183660626
Esmeralda Pharmacy Inc.,"65-55 Myrtle Ave. Glendale, NY ",11385,3477630225
Myrtle Drugmart,"65-62 Myrtle Ave. Glendale, NY ",11385,3472278188
Easy Rx Pharmacy,"66-09 Myrtle Ave. Queens, NY ",11385,8457694578
Pewex Pharmacy,"66-19 Fresh Pond Rd. Ridgewood, NY ",11385,7184566667
Forest Pharmacy,"66-44 Forest Ave. Ridgewood, NY ",11385,7184174700
Legal Specialty Pharmacy,"66-68 Fresh Pond Rd. Queens, NY ",11385,7184567300
I&Y Pharmacy Corp,"66-69 Fresh Pond Rd. Queens, NY ",11385,7183686060
Mil-Rue Pharmacy,"66-87 Fresh Pond Rd. Queens, NY ",11385,7188213271
Family Pharmacy ,"67-02 Myrtle Ave. Glendale, NY ",11385,7188213330
Glenridge Pharmacy,"68-01 Myrtle Ave. Queens, NY ",11385,7183663561
Essential Pharmacy,"68-25 Forest Ave. Queens, NY ",11385,3475898077
Ridgewood City Pharmacy,"775 Seneca Ave. #1 Flushing, NY ",11385,7183817766
Manav Pharmacy,"917 Wyckoff Ave. Ridgewood, NY ",11385,7183666700
Evers Pharmacy,"208-07 Linden Blvd. Queens, NY ",11411,7187342207
Lin Pharmacy,"224-04 Linden Blvd. Cambria Heights, NY ",11411,3475485250
Wise Pharmacy,"189-01 Linden Blvd. St. Albans, NY ",11412,7189783901
Bakers Drugs Pharmacy,"205-43 Linden Blvd. St. Albans, NY ",11412,7187495988
Quick Fill Pharmacy,"216-17 Merrick Blvd. Queens, NY ",11413,7182766090
Laurelton Pharmacy,"224-12 Merrick Blvd. Springfield Gardens, NY ",11413,7189770700
OrgaNYC Rx Pharmacy & Juicebar,"133-40 79th St. #1 Howard Beach, NY ",11414,7184873022
Cross Bay Chemist,"157-02 Cross Bay Blvd. Howard Beach, NY ",11414,7186599500
Howard Beach Apothecary,"158-40 Cross Bay Blvd. Howard Beach, NY ",11414,7187384343
Linden Park Pharmacy,"82-43 153rd Ave. Queens, NY ",11414,7188487778
Health Source Plus Pharmacy,"118-07 Metropolitan Ave. Kew Gardens, NY ",11415,7188496700
N&B Pharmacy Inc.,"118-29 Metropolitan Ave. #A Jamaica, NY ",11415,7184878100
PrimeMed Pharmacy,"120-84 Queens Blvd. Kew Gardens, NY",11415,7188729772
Reo Chemist Inc. ,"81-12 Lefferts Blvd. Kew Gardens, NY ",11415,7188494661
Mea Pharmacy Inc.,"81-44 Lefferts Blvd. Queens, NY ",11415,7184801301
Ideal Pharmacy,"85-48 118th St. Kew Gardens, NY ",11415,7184415474
Elite Specialty Pharmacy,"102-10 101st Ave. Ozone Park, NY ",11416,7188801783
ASG Pharmacy,"102-16 Liberty Ave. Queens, NY ",11416,3479608788
Ozone Park Pharmacy,"74-01 101st Ave. Queens, NY ",11416,7182967777
Al-Haqq Pharmacy,"75-07 101st Ave. Queens, NY ",11416,7187383333
Meghna Pharmacy,"77-06 101st Ave. Queens, NY ",11416,5162832584
Sylhet Pharmacy,"80-01 101st Ave. Queens, NY ",11416,7186413938
Ozone Rx Pharmacy,"86-01 101st Ave. Queens, NY ",11416,7189549085
Cross Bay Chemist,"96-05 101st Ave. Queens, NY ",11416,7188801644
Kalish Pharmacy,"93-20 Liberty Ave. Queens, NY ",11417,7186415648
Care Script Pharmacy,"96-05 Rockaway Blvd. Ozone Park, NY ",11417,7184873677
The J Apothecary Pharmacy,"101-21 Jamaica Ave. Richmond Hill, NY ",11418,7188468600
Direct Rx Specialty Pharmacy,"102-05 Jamaica Ave. Richmond Hill, NY ",11418,7184414693
Expert Pharmacy,"107-02 Jamaica Ave. Richmond Hill, NY ",11418,7188501100
Sunrise Pharmacy,"111-21 Jamaica Ave. S. Queens, NY ",11418,7184411426
Essential Rx Pharmacy,"115-07 Jamaica Ave. Jamaica, NY ",11418,7184417414
A&P Pharmacy,"117-09 Jamaica Ave. Jamaica, NY ",11418,7188801008
Triangle Pharmacy,"119-01 Jamaica Ave. Richmond Hill, NY ",11418,7188479850
Richmond Drugs & Surgical Inc.,"121-17 Jamaica Ave. Richmond Hill, NY ",11418,7188499800
Richmond Hill Pharmacy Inc.,"125-04 Jamaica Ave. Richmond Hill, NY ",11418,7185708288
Metro Drugs Rx,"134-02 Jamaica Ave. Queens, NY ",11418,7182064653
Superscript Pharmacy,"135-06 Jamaica Ave. Richmond Hill, NY ",11418,7183743939
Van Wyck Prescription Center Pharmacy,"88-20B Van Wyck Expy. Richmond Hill, NY ",11418,7186580012
MAK Pharmacy,"111-12 Atlantic Ave. Queens, NY ",11419,7184806919
Elite Drugs and Surgical ,"111-14 Liberty Ave. South Richmond Hill, NY ",11419,7188801940
Super Rx Pharmacy Inc.,"112-12 Liberty Ave. Queens, NY ",11419,7188453540
Jasmine Pharmacy,"114-18 Liberty Ave. Queens, NY ",11419,3472381046
Blend Labs Rx,"115-02 Liberty Ave. #200 Queens, NY ",11419,9147457500
MasterPharm Compounding Pharmacy,"115-08 Liberty Ave. Queens, NY ",11419,7185295500
Masta's Pharmacy Inc.,"115-09 Liberty Ave. Queens, NY ",11419,7188358724
Meeraj Pharmacy,"115-17 Liberty Ave. Queens, NY ",11419,7186414400
Zara Pharmacy,"116-13 Liberty Ave. South Richmond Hill, NY ",11419,7186419100
Guardian Pharmacy and Surgical,"117-04 Atlantic Ave. Queens, NY ",11419,7184801116
SureDrugs Pharmacy,"118-06 101st Ave. South Richmond Hill, NY",11419,7188802500
Little Guyana Pharmacy & Café,"119-08 Liberty Ave. #119 Queens, NY ",11419,5168466040
CPW Pharmacy,"121-16 Liberty Ave. Jamaica, NY ",11419,7183224900
Rx Spress Pharmacy,"123-07 Liberty Ave. Jamaica, NY ",11419,7183227320
Choice Pharmacy,"124-01 Liberty Ave. South Richmond Hill, NY",11419,7188450200
Liberty Pharmacy,"124-02 Liberty Ave. South Richmond Hill, NY ",11419,7187381500
Richmond Hill Pharmacy ,"125-01 101st Ave. Jamaica, NY ",11419,7188497300
Superdrugs Inc.,"127-04 Liberty Ave. South Richmond Hill, NY ",11419,7187382122
Georgetown Pharmacy,"134-07 Liberty Ave. Queens, NY ",11419,7182060716
Caremart Pharmacy LLC,"95-02 Van Wyck Expy. Jamaica, NY ",11419,7186835556
Guru Specialty Pharmacy Inc.,"118-04 Rockaway Blvd. South Ozone Park, NY ",11420,7183222228
Rex Pharmacy,"119-01 Rockaway Blvd. Queens, NY ",11420,7188438000
CPW Pharmacy,"131-07 Rockaway Blvd. South Ozone Park, NY",11420,7183225000
Abrin Pharmacy,"131-13 Rockaway Blvd. South Ozone Park, NY ",11420,7185291130
Park Health Pharmacy,"131-24 Rockaway Blvd. Jamaica, NY ",11420,7183223261
Wakefield Pharmacy,"135-25 Lefferts Blvd. Jamaica, NY ",11420,7188433900
Good Health Pharmacy,"79-28 Jamaica Ave. Woodhaven, NY",11421,7182967000
HealthMax Pharmacy,"80-07 Jamaica Ave. Queens, NY ",11421,7182960400
Phils Pill Pharmacy,"83-87 Woodhaven Blvd. Queens, NY ",11421,7184806484
Woodhaven Chemist Pharmacy,"86-22 Jamaica Ave. Queens, NY ",11421,7184417111
Atlas Pharmacy LLC,"92-13 Jamaica Ave. Queens, NY ",11421,7185770200
Medex Pharmacy,"96-02 Jamaica Ave. Queens, NY ",11421,7188057000
AAA Drugs Inc. ,"143-73 243rd St. Queens, NY ",11422,7185285299
Merrick Pharmacy,"234-28 Merrick Blvd. Queens, NY ",11422,7189978700
Hollis Pharmacy,"188-06 Jamaica Ave #A Jamaica, NY ",11423,7187768505
Isak Pharmacy inc.,"195-07 Jamaica Ave. Jamaica, NY ",11423,7184658739
QuickScript Pharmacy Hollis,"197-18 Hillside Ave. Queens, NY ",11423,7184642400
Corona Farmacia,"201-16 Hillside Ave. Queens, NY ",11423,7185004891
Robins Pharmacy,"204-14 Hillside Ave. Queens, NY ",11423,7184644066
FranHill Pharmacy & Surgical,"204-19 Hillside Ave. Hollis, NY ",11423,7184652121
Hollis Prescription Center,"205-11 Jamaica Ave. Hollis, NY ",11423,7187762329
Super Pharmacy,"205-20 Jamaica Ave. Hollis, NY ",11423,7184655200
Braddock Ave. Pharmacy,"236-01 Braddock Ave. Queens, NY ",11426,7813471516
Good Care Pharmacy,"241-06 Hillside Ave. Queens, NY ",11426,7183431000
Phamco Drugs & Surgicals,"248-15 Union Tpke. Queens, NY",11426,7187495811
Queens Village Pharmacy,"214-44 Hillside Ave. Queens Village, NY ",11427,7187761123
EBI Pharmacy & supermarket,"216-20 Hillside Ave. Queens Village, NY ",11427,7182177700
Nutracare Pharmacy,"220-36 Hillside Ave. Queens, NY ",11427,7182642222
QV Pharmacy,"214-09 Jamaica Ave. Queens, NY ",11428,7184655400
WellMart Pharmacy,"219-13 Jamaica Ave. Queens Village, NY ",11428,7187040808
Boca Pharmacy,"221-21 Jamaica Ave. Jamaica, NY ",11428,7184655196
Village Pharmacy Inc. ,"90-37 Springfield Blvd. Jamaica, NY ",11428,7184644844
Spring Pharmacy Inc. ,"111-50 Springfield Blvd. Queens, NY ",11429,7187401237
Casson Pharmacy,"112-10 Springfield Blvd. Jamaica, NY ",11429,7184647777
Edelsie Pharmacy Inc. ,"112-28 Francis Lewis Blvd. Queens, NY ",11429,7184360036
Hollis Drugs & Surgicals,"206-08 Hollis Ave. Queens, NY ",11429,7184641556
County Pharmacy,"220-08 Hempstead Ave. Queens Village, NY ",11429,7187762300
Skylight Pharmacy,"153-34 Hillside Ave. Queens, NY ",11432,7188801720
AHF Pharmacy Queens,"161-21 Jamaica Ave #7 FL Queens, NY ",11432,9294214620
Healthy Choice Pharmacy,"163-03 Hillside Ave. Queens, NY ",11432,3474549032
Apnar Pharmacy & Café,"168-01 Hillside Ave. Queens, NY ",11432,3475616520
Queens Community Express Pharmacy,"168-12 Hillside Ave. Jamaica, NY ",11432,7182069096
Jamaica Pharmacy,"168-43 Hillside Ave. Queens, NY ",11432,7182069333
Estates Pharmacy & Surgical,"169-01 Hillside Ave. Queens, NY ",11432,7187390311
Al-Mamoor Pharmacy,"169-18 Hillside Ave. Queens, NY ",11432,7183743406
Ahi Pharmacy,"169-19 Jamaica Ave. Queens, NY ",11432,7184803833
Medicmasters Pharmacy & Surgical,"169-26 Jamaica Ave. Jamaica, NY ",11432,7182064121
Family Care Rx Pharmacy,"170-04 Hillside Ave. Jamaica, NY ",11432,7182971927
Hillside Dhaka Pharmacy,"170-14 Hillside Ave. Jamaica, NY ",11432,7185262300
Queens Valley Pharmacy & Supermarket,"170-25 Hillside Ave. Queens, NY ",11432,7182620138
Metro 2014 Pharmacy Inc. ,"172-17 Jamaica Ave. Jamaica, NY ",11432,7185235800
Star Care Pharmacy,"175-20 Hillside Ave. Jamaica, NY ",11432,7182628789
Premium Rx Pharmacy,"178-01 Hillside Ave. Queens, NY ",11432,3473923913
Heartland Pharmacy Corp,"178-27 Hillside Ave. Jamaica, NY",11432,7182859940
Global United Pharmacy,"179-42 Hillside Ave. Jamaica, NY ",11432,7182060271
Hillside Pharmacy,"184-20 Hillside Ave. Jamaica, NY ",11432,7186587800
Tower Pharmacy & Surgical,"185-12 Hillside Ave. Jamaica, NY ",11432,7185261121
Fusioncare Pharmacy,"187-23 Hillside Ave. Queens, NY ",11432,3476441886
Shankar Pharmacy,"82-35 164th St. Jamaica, NY",11432,7183801261
Med Script Pharmacy,"83-42 Parsons Blvd. Jamaica, NY",11432,7186589300
New Parsons Pharmacy,"88-01 Parsons Blvd. Jamaica, NY ",11432,7182911114
Medicine Cabinet Pharmacy,"88-28 Parsons Blvd. Jamaica, NY ",11432,7182971345
Jamaica Pharmacy,"89-24 163rd St. Queens, NY ",11432,7187396229
New York Blvd. Pharmacy,"107-45 Guy R Brewer Blvd. Jamaica, NY ",11433,7182976500
Community Pharmacy,"114-34 Sutphin Blvd. Queens, NY ",11434,7189259259
Apex Pharmacy,"114-49 Sutphin Blvd. Jamaica, NY ",11434,7188484900
Guy Brewer Pharmacy,"117-17 Guy R Brewer Blvd. Jamaica, NY ",11434,7185255005
Krowns Pharmacy Inc.,"119-06 Merrick Blvd. Queens, NY",11434,6463318316
Merrick Blvd. Pharmacy,"126-13 Merrick Blvd. Jamaica, NY ",11434,7185280505
JAM Pharmacy ,"134-10 Guy R Brewer Blvd. Jamaica, NY ",11434,7185272400
GBB Wellness Inc.,"137-42 Guy R Brewer Blvd. Jamaica, NY ",11434,7189780001
Heal the World Pharmacy Inc.,"161-45 Baisley Blvd. Jamaica, NY ",11434,7182764325
Baisley Pharmacy,"165-70 Baisley Blvd. Jamaica, NY ",11434,7185282246
Variety Drugs,"169-33 137th Ave. Jamaica, NY ",11434,7187232100
Triumph Pharmacy,"111-12 Sutphin Blvd #2 Queens, NY ",11435,7185290300
Concord Drug,"137-61 Queens Blvd. Briarwood, NY ",11435,7187399099
Manson Pharmacy,"137-69 Queens Blvd. Queens, NY ",11435,7182974424
Best Choice Pharmacy,"138-19 Queens Blvd. Jamaica, NY ",11435,7185580008
Briarwood Drugs,"138-44B Queens Blvd. Queens, NY ",11435,9292447805
Central Rx Pharmacy,"138-50 84th Dr. Briarwood, NY ",11435,7182234593
Briarwood Pharmacy,"143-03 Hillside Ave. Jamaica, NY ",11435,7815260310
Ready Rx Pharmacy,"144-05 Jamaica Ave. Queens, NY ",11435,7182974500
Queens Drugs & Surgical ,"146-14 Jamaica Ave. Jamaica, NY ",11435,7182970099
Health and Comfort Rx,"147-16 Jamaica Ave. Queens, NY ",11435,7182628777
Hillside Astoria Pharmacy Inc.,"148-05 Hillside Ave. Jamaica, NY ",11435,7182783772
Sutphin Pharmacy,"87-80 Sutphin Blvd. Jamaica, NY ",11435,7182919500
Primary Care Pharmacy,"90-20 Sutphin Blvd. Jamaica, NY ",11435,7182914747
Metro Drugs Inc.,"95-31 Sutphin Blvd. Jamaica, NY ",11435,7185225560
Evers Pharmacy,"142-02 Rockaway Blvd. Jamaica, NY ",11436,7183238377
PharmEx Pharmacy,"142-08 Rockaway Blvd. Queens, NY ",11436,9174441985
Dawn Pharmacy,"1288 Central Ave. Far Rockaway, NY ",11691,7183271700
Redfern Drugs,"1485 Beach Channel Dr. Far Rockaway, NY ",11691,7184713090
Ocean Park Drugs & Surgical,"1727 Seagirt Blvd. Far Rockaway, NY ",11691,7184712500
Russo's Pharmacy,"1909 Cornaga Ave. Far Rockaway, NY ",11691,7183277027
Mott Pharmacy & Surgical,"2119 Mott Ave. #3215 Far Rockaway, NY ",11691,7183272511
Smart Shop Pharmacy Inc. ,"3217 Beach Channel Dr. #A Far Rockaway, NY ",11691,7188682200
Friendly Pharmacy,"495 Beach 20th St. Queens, NY ",11691,7183371900
Vista Pharmacy,"529 Beach 20th St. Far Rockaway, NY ",11691,7183270600
Sandcastle Pharmacy & Surgical Supply Inc.,"711 Seagirt Ave. Far Rockaway, NY ",11691,7183274300
R&I Rx Center Inc.,"342 Beach 54th St. Queens, NY ",11692,7186345890
Health Center Pharmacy,"6200 Beach Channel Dr. Far Rockaway, NY ",11692,7189452400
SMK Pharmacy,"8702 Rockaway Beach Blvd. Rockaway Beach, NY ",11693,7186349300
Morning Star Pharmacy,"9216 Rockaway Beach Blvd. Rockaway Beach, NY ",11693,3476198521
Belle Harbor Chemists,"449 Beach 129th St. Queens, NY ",11694,7186340001
Hanna's Pharmacy,"202-20 Rockaway Pt. Blvd. Breezy Point, NY ",11697,7186340273
Pharmaconic of Little Neck,"254-37 Horace Harding Expy. Queens, NY ",11362,7188198511
Lee's Drug Store,"160 Tulip Ave. Floral Park, NY ",11001,5163542000
Raindew Pharmacy,"73 Covert Ave. Floral Park, NY",11001,5163541227
CureWell Pharmacy & Surgicals,"1785 Dutch Broadway Elmont, NY ",11003,5168713114
Franklin Square Pharmacy ,"925 Hempstead Tpke. Franklin Square, NY ",11010,5163287777
GelCap Pharmacy,"181 Franklin Ave. Franklin Square, NY ",11010,5164476986
Town Pharmacy,"96 Horace Harding Blvd. Great Neck, NY ",11020,5164395380
Nature's Remedy Pharmacy,"72 Middle Neck Rd. N. Great Neck, NY ",11021,5164394911
New Grace Pharmacy,"10 Grace Ave. Great Neck, NY ",11021,5164727688
North Shore Chemists Pharmacy,"800 Northern Blvd. #4 Great Neck, NY ",11021,5164608343
South Station Pharmacy,"26 S. Station Plaza, Great Neck, NY ",11021,5167081300
Colony Pharmacy,"481 Middle Neck Rd. Great Neck, NY ",11023,5164395556
Precision Pharmacy of Great Neck,"665 Middle Neck Rd. Great Neck, NY ",11023,5164820005
Maclennan Pharmacy,"588 Plandome Rd. Manhasset, NY ",11030,5166272500
Manhasset Park Drug,"290 Plandrome Rd. Manhasset, NY ",11030,5168690101
Raindew Plandome Store,"465 Plandome Rd. Manhasset, NY ",11030,5166278666
Curemed Rx Pharmacy & Surgical Supplies,"2020 Lakeville Rd. New Hyde Park, NY ",11040,5167557999
Eva Cosmetic & Drug Corp.,"1615 Hillside Ave. New Hyde Park, NY ",11040,5163548900
Lakeville Pharmacy,"749 Hillside Ave. New Hyde Park, NY ",11040,5163543545
Twin Parks Pharmacy and Surgicals,"2226 Jericho Tpke. Garden City Park, NY ",11040,5168738600
Zen Rx Inc. Pharmacy,"418 Hillside Ave. New Hyde Park, NY",11040,5162161143
Bio Scrip Pharmacy,"7 Delaware Dr. New Hyde Park, NY ",11042,5166211557
Rx Drug Corp.,"410 Lakeville Rd. #102 New Hyde Park, NY ",11042,5163522337
Beacon Pharmacy,"103 Main St. Port Washington, NY ",11050,5168831155
Doctor's Pharmacy,"535 Port Washington Blvd. Port Washington, NY ",11050,5168830530
Everyready Wholesale Drug,"81 Seaview Blvd. #B Port Washington, NY",11050,5166296991
Hunold Pharmacy,"94 Main St. Port Washington, NY ",11050,5167670007
Franwin Pharmacy Mineola Surgical,"127 Mineola Blvd. Mineola, NY ",11501,5167464720
Mineola Family Pharmacy,"182 2nd St. Mineola, NY ",11501,5164275573
Wonderful Rx Pharmacy Inc. ,"52 Jericho Tpke. Mineola, NY ",11501,5164164881
Baldwin Pharmacy LLC,"1927 Grand Ave. Baldwin, NY ",11510,5165444454
Baldwin Rx Pharmacy & Surgical Supply Store,"948 Atlantic Ave. Baldwin, NY ",11510,5162232935
Clinix Plus Pharmacy,"1655 Grand Ave. Baldwin, NY",11510,5164422046
Carman Drugs,"570 Westbury Ave. Carle Place, NY ",11514,5163332400
Central Aid Pharmacy,"546 Central Ave. Cedarhurst, NY ",11516,5167308200
Ezra Pharmacy,"690 Central Ave. Cedarhurst, NY ",11516,5165697820
Grand Central Pharmacy,"420 Central Ave #A Cedarhurst, NY ",11516,5162958880
R&H Pharma Inc.,"123 Maple Ave #201A Cedarhurst, NY",11516,5165699322
Spruce Rx Pharmacy,"127A Spruce St. Cedarhurst, NY ",11516,8666836596
Bernhards Pharmacy,"34 W Merrick Rd. Freeport, NY ",11520,5163780008
Cannon Pharmacy,"23 S Main St. #1 Freeport, NY ",11520,5166232222
Chubbuk's Drug Store,"51 S Main St. Freeport, NY ",11520,5163793333
Freeport Medical Supply Xtra Care Pharmacy,"75 S Main St. Freeport, NY ",11520,5162087432
Freeport Pharmacy,"82 Guy Lombardo Ave. Freeport, NY ",11520,5163778500
Health Mart Pharmacy,"29 Atlantic Ave. Freeport, NY ",11520,5163774050
Americare Pharmaceutical Services,"317 Nassau Blvd. Garden City South, NY ",11530,5162927948
Garden City Family Pharmacy,"10 Nassau Blvd. Garden City South, NY ",11530,5165057979
Wayne's Pharmacy Inc. ,"114 7th St. Garden City, NY ",11530,5167477977
Glen Cove Chemists,"20 Forest Ave. Glen Cove, NY ",11542,5166769111
Glen Head Pharmacy & Gift Shop Inc.,"699 Glen Cove Ave. Glen Head, NY ",11545,5166761004
Greenvale Chemist Pharmacy,"5 Northern Blvd. Greenvale, NY ",11548,5166212260
Halsey Drugs & Surgicals,"82 Glen Cove Rd. Greenvale, NY ",11548,5168014413
Aneddona Pharmacy,"224 S. Franklin St. Hempstead, NY ",11550,5162922155
Community Care Rx,"86 Front St. Hempstead, NY ",11550,5164188058
D's Pharmacy,"391 Peninsula Blvd. Hempstead, NY ",11550,5162804100
EmblemHealth Pharmacy,"226 Clinton St. Hempstead, NY ",11550,5165601860
Franklin Rx Pharmacy,"98B N. Franklin St. Hempstead, NY ",11550,5162920222
Fulton Ave. Pharmacy Inc.,"360 Fulton Ave. Hempstead, NY ",11550,5164899500
Health & Wellness Farmacia Inc.,"634 Fulton Ave. Hempstead, NY ",11550,5162802260
Nishu Pharmacy Inc.,"54 Main St. #101 Hempstead, NY ",11550,5164892211
Preferred Pharmacy,"175 Fulton Ave. #104, Hempstead, NY ",11550,5164835000
Shipman's Pharmacy,"210 S. Franklin St. Hempstead, NY ",11550,5164831767
West End Pharmacy,"33 Front St. #101 Hempstead, NY ",11550,5164896770
National Rx Pharmacy,"300 Hempstead Tpke. West Hemstead, NY ",11552,5165397540
West Hempstead Pharmacy,"490 Hempstead Ave. West Hempstead, NY ",11552,5162926161
BioMed Pharmacy,"531 E Meadow Ave. East Meadow, NY ",11554,5163851960
Family Rx Pharmacy,"621 Merrick Ave. East Meadow, NY ",11554,5162807474
Meadow Drugs,"353 Newbridge Rd. East Meadow, NY ",11554,5167850120
Caliber Pharmacy & Cosmetics,"1311 Broadway Hewlett, NY ",11557,5163742934
Hewlett Neighborhood Pharmacy,"1181 Broadway Hewlett, NY ",11557,5167912400
Conrad's Pharmacy,"333 Long Beach Rd. Island Park, NY",11558,5164311991
US Med Supply Corp,"203 Long Beach Rd. Ste. A Island Park, NY",11558,6467974200
Locust Valley Chemists,"60 Forest Ave. Locust Valley, NY ",11560,5166569090
Kings Pharmacy,"1054 W Beech St. Long Beach, NY ",11561,5164314455
Long Beach Chemists,"170 W Park Ave. Long Beach, NY ",11561,5164310611
Precision Pharmacy of Long Beach,"629 E Park Ave. Long Beach, NY ",11561,5168898899
Lakeview Pharmacy,"133 Lakeview Ave. Lynbrook, NY ",11563,5165994646
Lynbrook Drugs,"353 Merrick Rd. Lynbrook, NY",11563,5163410759
Picker Pharmacy,"18 Atlantic Ave. Lynbrook, NY ",11563,5165990079
OnPoint Pharmacy of Malverne,"247 Hempstead Ave. Malverne, NY",11565,5165938663
Garfield Pharmacy,"1760 Merrick Ave. N. North Merrick, NY ",11566,5163785521
Long Island Apothecary - Merrick,"2027 Merrick Rd. Merrick, NY ",11566,5166849732
Gelo's Point Pharmacy,"62 Lido Blvd. Point Lookout, NY ",11569,5168893444
Medscript Pharmacy,"180 Sunrise Hwy. Rockville Centre, NY",11570,5164425783
Rockville Centre Pharmacy,"30 Hempstead Ave #156 Rockville Centre, NY",11570,5167646161
Rockville Pharmacy,"17N N Park Ave #B Rockville Centre, NY",11570,5166365634
Valenti Pharmacy,"70 N Village Ave. Rockville Centre, NY ",11570,5167058282
Anchor Rx Pharmacy & Health Enhancing Juice Bar,"3110 Long Beach Rd. Oceanside, NY ",11572,5169928449
Levins Pharmacy,"364 Long Beach Rd. Oceanside, NY ",11572,5167662288
Ocean Chemists Inc. ,"3124 Long Beach Rd. #7 Oceanside, NY",11572,5167649600
Roosevelt Pharmacy,"348 Nassau Rd. Roosevelt, NY ",11575,5164424995
East Hills Pharmacy,"310 Roslyn Rd. Roslyn Heights, NY ",11577,5166217373
Harbor Hill Pharmacy LLC,"310 Glen Cove Rd. Roslyn Heights, NY ",11577,5166211185
BesScription Pharmacy,"460 Glen Cove Ave. #A Sea Cliff, NY ",11579,8662379419
Crescent Pharmacy,"48 Central Ct. Valley Stream, NY",11580,5165937747
Dale Drug,"531 W Merrick Rd. Valley Stream, NY ",11580,5165611222
Valley Stream Pharmacy & Surgicals,"42 Rockaway Ave. Valley Stream, NY ",11580,5164420200
Valley Stream Rx,"209 Rockaway Ave. Valley Stream, NY ",11580,5162847257
AAA GPO INC. DBA Valley Pharmacy,"79 Roosevelt Ave. Valley Stream, NY ",11581,5167587221
Parkdale Pharmacy,"945 Rosedale Rd. Valley Stream, NY ",11581,5167916500
Synergy Rx,"20 Sunrise Hwy. Valley Stream, NY",11581,8336336833
IPPC Pharmacy,"275 Grand Blvd. Westbury, NY ",11590,5165444311
Konfeti Specialty Pharmacy of Westbury,"173 Post Ave. Westbury, NY ",11590,5163337700
Nu Cassel Pharmacy,"821 Prospect Ave. Westbury, NY ",11590,5162809674
Lafayette Pharmacy,"330 Hillside Ave. Williston Park, NY ",11596,5167460646
Bayville Pharmacy Inc.,"253 Bayville Ave. Bayville, NY ",11709,5166283640
Keezac Pharmacy,"111 Bedford Ave. Bellmore, NY ",11710,5162214022
New Grace Pharmacy,"2302 Bellmore Ave. Bellmore, NY ",11710,5166549563
Precision Pharmacy Bellmore,"2640 Merrick Rd. Bellmore, NY ",11710,5167854774
Bethpage Medical Pharmacy,"4277 Hempstead Tpke. Bethpage, NY ",11714,5167964004
Bethpage Pharmacy,"334 Bdwy. Bethpage, NY ",11714,5169311481
Acme Pharmacy,"4236 Merrick Rd. Massapequa, NY ",11735,8005882300
Transcript Pharmacy,"87 Hempstead Tpke. Farmingdale, NY ",11735,5167777040
Wellcare Pharmacy,"1037 Fulton St. Farmingdale, NY ",11735,5164202189
Levittown Pharmacy,"60 Division Ave. Levittown, NY ",11756,5166050503
Stuart's Legend Pharmacy,"681 Bdwy. Massapequa, NY ",11758,5167995858
Charlie's Family Pharmacy,"3931 Merrick Rd. Seaford, NY ",11783,5167837979
VCare Rx Pharmacy,"1043 Hicksville Rd. Seaford, NY ",11783,5167967000
Jericho Pharmacy,"340 Jericho Tpke. Syosset, NY ",11791,5168640020
Specialty Home Rx,"575 Underhill Blvd. #110 Syosset, NY",11791,8557946634
Syosset Pharmacy,"175 Jericho Tpke. Syosset, NY ",11791,5168651151
Village Pharmacy of Syosset,"38 Cold Spring Rd. Syosset, NY ",11791,5169210880
Direct Connect Pharmacy,"394 Woodbury Rd. Hicksville, NY ",11801,5168559555
Freeport Pharmacy,"478 Plainview Rd. Hicksville, NY ",11801,5164334437
Good Rx Pharmacy,"459 S. Bdwy. Hicksville, NY ",11801,5165957400
Harry's Pharmacy & Surgicals,"333 S. Bdwy. Hicksville, NY ",11801,5169333322
Hicksville Pharmacy,"495 S. Bdwy. Hicksville, NY ",11801,5163960608
Managed Rx Plans Inc. ,"270 Duffy Ave. #C Hicksville, NY ",11801,5164330044
Medical Group Pharmacy,"756 S. Bdwy. Hicksville, NY ",11801,5164333168
Perfect Pharmacy,"524 S. Bdwy. Hicksville, NY ",11801,5164337115
Pro Pharmacy,"71 E. Old Country Rd. Hicksville, NY ",11801,5167195919
Smith Pharmacy,"53 N. Bdwy. Hickville, NY ",11801,5169311099
Alto Pharmacy,"100 Manetto Hill Rd. #104 Plainview, NY ",11803,8008745881
Medisource Pharmacy,"720 Old Country Rd. Plainview, NY ",11803,5166050080
Next Generation Pharmacy,"875 Old Country Rd. #LL100 Plainview, NY ",11803,5165131442
Plainview Family Pharmacy,"142a Manetto Hill Rd. Plainview, NY ",11803,5169327077
Diamond Drugs II,"724 Old Bethpage Rd. Old Bethpage, NY ",11804,5165868733
Salen Drugs,"475 Port Washington Blvd. #8 Port Washington, NY ",11050,5169448668
Bay Village Drug & Surgical,"357 Bdwy. #2 Amityville, NY ",11701,6317894447
Village Pharmacy & Surgical,"124 E. Main St. #103 Babylon, NY ",11702,6314821160
Deer Park Pharmacy,"1155 Deer Park Ave. North Babylon, NY ",11703,6319409472
Crown Pharmacy,"66 Deer Shore Sq. North Babylon, NY ",11703,6319405555
Park Chemists,"54 Deer Park Ave. North Babylon, NY ",11703,6316672484
Kensington Pharmacy and Surgicals,"419 Great East Neck Rd. West Babylon, NY ",11704,6314829750
Sun Ray Pharmacy,"1191 Sunrise Hwy. Bay Shore, NY ",11706,6312064000
Bay Shore Chemists,"10 W. Main St. Bay Shore, NY ",11706,6316653059
Shore Drug,"30 E. Main St. Bay Shore, NY ",11706,6316653000
Bay Pharmacy,"603 E. Main St. Bay Shore, NY ",11706,6316652229
Genoa Healthcare,"1448 5th Ave. Bay Shore, NY ",11706,6319542060
Health Mart Pharmacy,"5 Candlewood Rd. Bay Shore, NY ",11706,6313004670
Salumed Pharmacy,"1805 5th Ave. Bay Shore, NY ",11706,6312314960
United Rx Solutions,"78 Crossway E. Bohemia, NY ",11716,8447419718
Salumed Pharmacy Inc.,"753 Commack Rd. Brentwood, NY ",11717,6312990213
Brentwood Pharmacy,"761 Suffolk Ave. #1 Brentwood, NY ",11717,6312733314
Salud Y Vida Farmacia,"1077 Suffolk Ave. Brentwood, NY ",11717,6312730101
Thrift Drug,"128 Clarke St. Brentwood, NY ",11717,6312735100
Long Island Apothecary,"6216 Jericho Tpke. Commack, NY ",11725,6314869172
Option Care Health,"68 Hauppauge Rd. Commack, NY ",11725,6312482501
Vanco Pharmacy,"30 Vanderbilt Pkwy. Commack, NY ",11725,6314991111
Rx Express Pharmacy,"1163 Jericho Tpke. Commack, NY ",11725,6315433331
Prescription Centre & Surgicals,"35H Middle Country Rd. Coram, NY ",11727,6316982868
Pharm Ez,"1980 NY-112 Coram, NY ",11727,6315692221
New Island Pharmacy Inc. ,"1912 Deer Park Ave. Deer Park, NY ",11729,6313924800
OfficeRx Pharmacy,"2130 Deer Park Ave. Deer Park, NY ",11729,6314869898
BestMedAlarm Online Drug Shop,"877 Long Island Ave. Deer Park, NY ",11729,6315952600
Direct First Aid Supply,"80 E. Jefryn Blvd. Deer Park, NY ",11729,6315861084
Prescription Youth,"900 Grand Blvd. Deer Park, NY ",11729,6315828433
Personalized Prescriptions,"60 E. Industry Ct. Deer Park, NY ",11729,6319408880
Unity Pharmacy,"126 E. Main St. East Islip, NY ",11730,6315819620
Town Drugs,"517 Larkfield Rd. East Northport, NY ",11731,6312663999
Village Chemists of Setauket,"226 Main St. East Setauket, NY ",11733,6317511333
United Chemists,"59 Central Ave. #8 Farmingdale, NY ",11735,6314147660
County Line Pharmacy,"1111 Broadhollow Rd. #111 Farmingdale, NY ",11735,6312496400
RxLink,"3500 Sunrise Hwy. Great River, NY ",11739,8887822615
Value Drugs,"106 Bdwy. Greenlawn, NY ",11740,6316518413
Holbrook Pharmacy & Surgical,"233 Union Ave. #100 Holbrook, NY ",11741,6315857092
Ortho Pharmaceuticals Inc.,"4250 Veterans Memorial Hwy. Holbrook, NY ",11741,6315850098
North Shore Pharmacy,"25 Southdown Rd. Huntington, NY ",11743,6314276262
Lantern Pharmacy,"26 Wall St. Huntington, NY ",11743,5168023844
Value Drugs,"349 New York Ave. Huntington, NY ",11743,6314272919
Main Source Pharmacy,"347 Main St. Huntington, NY ",11743,6317601114
Genoa Healthcare,"55 Horizon Dr. #P Huntington, NY ",11743,6317872654
Metcare,"1233 Walt Whitman Rd. Huntington, NY ",11743,6316294024
Country Village Chemists,"227 E. Main St. Huntington, NY ",11743,6313518989
Rx Express Pharmacy,"1842 E. Jericho Tpke. Huntington, NY ",11743,6314622233
Bla Pharmacy,"1549 New York Ave. Huntington Station, NY ",11746,6314704297
135 Jericho Pharmacy,"135 W. Jericho Tpke. #3 Huntington Station, NY ",11746,6319231060
Family Care Pharmacy,"33 Walt Whitman Rd. #100 Huntington Station, NY ",11746,6313506400
Leaf Wellness Pharmacy,"488 E. Jericho Tpke. Huntington Station, NY ",11746,6319232330
L&W Chemists,"10 Empire Ct. Dix Hills, NY ",11746,6316437512
110 Pharmacy & Surgical,"459 Walt Whitman Rd. Melville, NY ",11747,6314215454
Care I Can Afford,"115 Broadhollow Rd. Melville, NY ",11747,8662435489
Mom's Pharmacy,"45 Melville Park Rd. Melville, NY ",11747,6315476520
Avita Pharmacy 1063,"1860 Walt Whitman Rd. #700 Melville, NY ",11747,8558216300
Omni Pharmacy,"150 Sunrise Hwy. Lindenhurst, NY ",11747,6319578630
The Pharmacy,"3001 Express Dr. N. #118 Islandia, NY ",11749,6315825959
Islip Pharmacy and Surgical,"437 Main St. Islip, NY ",11751,6315818077
Raan Pharmacy,"48 Lowell Ave. Islip Terrace, NY ",11752,6315814285
Kings Park Pharmacy,"64 Indian Head Rd. Kings Park, NY ",11754,6316633800
Care+ Pharmacy,"602 Wellwood Ave. Lindenhurst, NY ",11757,6314504404
E&M Lindy Pharmacy Inc.,"178 E. Montauk Hwy. Lindenhurst, NY ",11757,6319579723
Medford Chemists,"2608 NY-112 Medford, NY ",11763,6314754476
Haven Drugs,"76 Southaven Ave. #1 Medford, NY ",11763,6312896888
Echo Pharmacy,"56 Echo Ave. Miller Place, NY ",11764,6316428175
Heritage Chemists Pharmacy,"150 NY-25A Mt. Sinai, NY ",11766,6315094545
Jones Drug Store,"100 Main St. Northport, NY ",11768,6312617070
Brookhaven Pharmacy,"350 E. Main St. #8 East Patchogue, NY ",11772,6314756666
LightHouse Pharmacy,"747 Montauk Hwy. East Patchogue, NY ",11772,6316542444
Sunrise Pharmacy,"285 Sills Rd. #8B East Patchogue, NY ",11772,6315694245
Fairfiew Pharmacy,"4747 Nesconset Hwy. #10 Port Jefferson Station, NY ",11776,6314747828
Port Jefferson Pharmacy,"1043 NY-112 Port Jefferson Station, NY ",11776,6319281010
Lakeland Pharmacy,"886 Johnson Ave. Lake Ronkonkoma, NY ",11779,6315886330
Focus Rx,"2805 Veterans Memorial Hwy. #19 Ronkonkoma, NY ",11779,8884648987
Spage's Pharmacy,"471 Lake Ave. St. James, NY ",11780,6315846460
RelyRx Pharmacy & Medical Supplies,"731 Middle Country Rd. St. James, NY ",11780,6316568900
Quality Pharmacy,"249 Middle Country Rd. Selden, NY ",11784,6317327373
Prescription Den Pharmacy,"239 Boyle Rd. Selden, NY ",11784,6316985444
Shoreham Drug,"99 NY-25A Shoreham, NY ",11786,6318210707
Smithtown Prescription Center,"260 E. Main St. #105 Smithtown, NY ",11787,6319797575
Maple Pharmacy,"304 Maple Ave. Smithtown, NY ",11787,6312654040
Tomkin's Pharmacy Health Care,"920 Wheeler Rd. Hauppauge, NY ",11788,6317247096
Aldo Drugs,"604 Union Blvd. West Islip, NY ",11795,6316616166
Wyandanch Drugs Inc.,"323 Merritt Ave. Wyandanch, NY ",11798,6312534552
Medical Center Pharmacy,"1537 Straight Path #1 Wyandanch, NY ",11798,6316434354
Barth's Drug Store,"32 E. Main St. Riverhead, NY ",11901,6317272125
Las Americas Pharmacy,"1053-1 Old Country Rd. Riverhead, NY ",11901,6315912840
Martin Drugs,"849 Old Country Rd. Riverhead, NY ",11901,6317270550
Cutchogue Barths Pharmacy,"28195 Main Rd. Cutchogue, NY ",11935,6317346796
White's Apothecary East Hampton,"81 Main St. East Hampton, NY ",11937,6313240082
Park Place Chemists,"200 Pantigo Pl. #K East Hampton, NY ",11937,6313246660
Barths Pharmacy,"94 Montauk Hwy. East Moriches, NY ",11940,6318743784
Barths Pharmacy,"424 Montauk Hwy. East Quogue, NY ",11942,6316533784
Greenport Drugs LLC,"74825 Main Rd. Greenport, NY ",11944,6314771222
Hampton Liggett Drugs,"39 W. Montauk Hwy. Hampton Bays, NY ",11946,6317284030
Whites of Montauk,"95 The Plaza. Montauk, NY ",11954,6316682994
Montauk Corner Store,"710 Montauk Hwy. #C Montauk, NY ",11954,6316686081
Sag Harbor Pharmacy,"120 Main St. Sag Harbor, NY ",11963,6317250074
Shelter Island Heights Pharmacy,"19 Grand Ave. Shelter Island Heights, NY ",11965,6317490445
RX DLVY Service Inc. ,"301 William Floyd Pkwy. Shirley, NY ",11967,6312941662
White's Apothecary Southampton,"18 Hampton Rd. Southampton, NY ",11968,6312872900
Southold Pharmacy,"53895 NY-25 Southold, NY ",11971,6317653434